[{"OBJECT_NAME":"ONEWEB-0233","OBJECT_ID":"2021-045AE","EPOCH":"2026-03-09T14:41:08.279232","MEAN_MOTION":13.15548169,"ECCENTRICITY":0.0001829,"INCLINATION":87.8935,"RA_OF_ASC_NODE":279.1202,"ARG_OF_PERICENTER":96.7927,"MEAN_ANOMALY":263.3411,"EPHEMERIS_TYPE":0,"CLASSIFICATION_TYPE":"U","NORAD_CAT_ID":48795,"ELEMENT_SET_NO":999,"REV_AT_EPOCH":23120,"BSTAR":-0.00031869,"MEAN_MOTION_DOT":-1.07e-6,"MEAN_MOTION_DDOT":0},{"OBJECT_NAME":"COSMOS 480","OBJECT_ID":"1972-019A","EPOCH":"2026-03-09T20:57:12.098016","MEAN_MOTION":13.19934651,"ECCENTRICITY":0.00174145,"INCLINATION":82.9802,"RA_OF_ASC_NODE":0.7732,"ARG_OF_PERICENTER":291.1619,"MEAN_ANOMALY":130.3273,"EPHEMERIS_TYPE":0,"CLASSIFICATION_TYPE":"U","NORAD_CAT_ID":5905,"ELEMENT_SET_NO":999,"REV_AT_EPOCH":59900,"BSTAR":5.9158614e-5,"MEAN_MOTION_DOT":3.7e-7,"MEAN_MOTION_DDOT":0}]
